IRIDIUM 126             
1 42809U 17039G   23259.48197838  .00000302  00000+0  10062-3 0  9998
2 42809  86.3950  53.5070 0002312  91.7481 268.3980 14.34216600325951
IRIDIUM 124             
1 42810U 17039H   23259.30987096  .00000637  00000+0  18348-3 0  9990
2 42810  86.4553 350.3567 0001998  93.0580 267.0849 14.43279040330173
IRIDIUM 128             
1 42811U 17039J   23260.03086969  .00000065  00000+0  16149-4 0  9995
2 42811  86.3911  84.8271 0002208  87.6310 272.5138 14.34217960326054
IRIDIUM 121             
1 42812U 17039K   23259.71031122  .00000266  00000+0  87793-4 0  9996
2 42812  86.3954  53.4329 0002243  93.2149 266.9303 14.34212933325976
IRIDIUM 133             
1 42955U 17061A   23259.78350563  .00000142  00000+0  43581-4 0  9999
2 42955  86.3914  85.0245 0002334  88.8244 271.3219 14.34217787310810
IRIDIUM 100             
1 42956U 17061B   23259.56785511  .00000124  00000+0  37323-4 0  9998
2 42956  86.3910  85.0571 0002220  88.5906 271.5544 14.34218507310785
IRIDIUM 122             
1 42957U 17061C   23260.02452534  .00000131  00000+0  39629-4 0  9997
2 42957  86.3911  84.8634 0002241  85.0294 275.1158 14.34219130310851
IRIDIUM 129             
1 42958U 17061D   23259.56152318  .00000123  00000+0  36987-4 0  9997
2 42958  86.3911  85.1139 0002254  87.6297 272.5157 14.34218185310805
